SWARM A                 
1 39452U 13067B   26178.15552713  .00010547  00000+0  18016-3 0  9998
2 39452  87.3322  52.5377 0003148  97.6172 262.5447 15.51138294707796
SWARM C                 
1 39453U 13067C   26178.15542328  .00010525  00000+0  17979-3 0  9993
2 39453  87.3321  51.1188 0003143  97.8716 262.2902 15.51137250707752
BRITE-CA1 (TORONTO)     
1 40020U 14033L   26178.22944338  .00000872  00000+0  13861-3 0  9994
2 40020  97.9749 306.9728 0077359 244.3004 115.0202 14.72691631643695
OCO 2                   
1 40059U 14035A   26178.18121434  .00000387  00000+0  96010-4 0  9996
2 40059  98.2019 119.3220 0001509  83.5344 276.6026 14.57118919637505
BRITE-PL2 (HEWELIUSZ)   
1 40119U 14049B   26178.21460774  .00001744  00000+0  16618-3 0  9998
2 40119  97.9107 290.2923 0015339  77.8705 282.4232 14.94630549642945
MMS 1                   
1 40482U 15011A   26178.25002315 -.00000867  00000+0  00000+0 0  9998
2 40482  72.2597 348.6950 8318055 167.6081 245.1697  0.28360282  1372
MMS 2                   
1 40483U 15011B   26178.25002315 -.00000867  00000+0  00000+0 0  9999
2 40483  72.2634 348.6941 8320864 167.6113 245.1603  0.28360246  1379
MMS 3                   
1 40484U 15011C   26178.25002315 -.00000866  00000+0  00000+0 0  9999
2 40484  72.2634 348.7059 8319234 167.6188 245.1342  0.28360245  1371
MMS 4                   
1 40485U 15011D   26178.25002315 -.00000867  00000+0  00000+0 0  9991
2 40485  72.2582 348.6890 8319103 167.6292 245.1234  0.28360926  1373
ASTROSAT                
1 40930U 15052A   26177.91335745  .00001538  00000+0  10540-3 0  9998
2 40930   5.9973  85.3306 0007890 177.8458 182.1704 14.82522407581271
DAMPE                   
1 41173U 15078A   26178.16963608  .00001594  00000+0  56038-4 0  9994
2 41173  97.4559 183.6859 0013383  46.4127 313.8222 15.30810812586075
PISAT                   
1 41784U 16059B   26177.95262248  .00000903  00000+0  16112-3 0  9991
2 41784  97.8180 177.9858 0029196 171.3443 188.8272 14.68999168521177
HXMT (HUIYAN)           
1 42758U 17034A   26178.19827322  .00004634  00000+0  22884-3 0  9992
2 42758  43.0134 127.2924 0032118 210.7538 149.1428 15.18541951499181
FLYING LAPTOP           
1 42831U 17042G   26178.18398056  .00002534  00000+0  20114-3 0  9990
2 42831  97.4727 333.3342 0019974  89.8356 270.5157 15.01206076487954
ZHANGHENG 1-01 (CSES-1) 
1 43194U 18015C   26178.20544083  .00008260  00000+0  37490-3 0  9997
2 43194  97.6871 344.0629 0017412 229.1266 130.8461 15.20936581466168
SALSAT                  
1 46495U 20068K   26177.95657953  .00008212  00000+0  28601-3 0  9998
2 46495  97.8848 181.6168 0007823 266.2984  93.7361 15.29932421316852
IXPE                    
1 49954U 21121A   26178.16670139  .00012604  00000+0  69006-3 0  9991
2 49954   0.2288 242.5753 0006852 230.8268 132.9888 15.10340872  5129
SMILE                   
1 69123U 26109A   26158.38327019 -.00000041  00000+0 -36778-3 0  9994
2 69123  69.9787 209.3069 3310191 288.5544  45.7342  7.54049028  2480
