OBJECT_NAME,OBJECT_ID,EPOCH,MEAN_MOTION,ECCENTRICITY,INCLINATION,RA_OF_ASC_NODE,ARG_OF_PERICENTER,MEAN_ANOMALY,EPHEMERIS_TYPE,CLASSIFICATION_TYPE,NORAD_CAT_ID,ELEMENT_SET_NO,REV_AT_EPOCH,BSTAR,MEAN_MOTION_DOT,MEAN_MOTION_DDOT
SWARM A,2013-067B,2026-06-27T03:43:57.544032,15.51138294,.0003148,87.3322,52.5377,97.6172,262.5447,0,U,39452,999,70779,.18016E-3,.10547E-3,0
SWARM C,2013-067C,2026-06-27T03:43:48.571392,15.51137250,.0003143,87.3321,51.1188,97.8716,262.2902,0,U,39453,999,70775,.17979E-3,.10525E-3,0
BRITE-CA1 (TORONTO),2014-033L,2026-06-27T05:30:23.908032,14.72691631,.0077359,97.9749,306.9728,244.3004,115.0202,0,U,40020,999,64369,.13861E-3,.872E-5,0
OCO 2,2014-035A,2026-06-27T04:20:56.918976,14.57118919,.0001509,98.2019,119.3220,83.5344,276.6026,0,U,40059,999,63750,.9601E-4,.387E-5,0
BRITE-PL2 (HEWELIUSZ),2014-049B,2026-06-27T05:09:02.108736,14.94630549,.0015339,97.9107,290.2923,77.8705,282.4232,0,U,40119,999,64294,.16618E-3,.1744E-4,0
MMS 1,2015-011A,2026-06-27T06:00:02.000160,0.28360282,.8318055,72.2597,348.6950,167.6081,245.1697,0,U,40482,999,137,0,-.867E-5,0
MMS 2,2015-011B,2026-06-27T06:00:02.000160,0.28360246,.8320864,72.2634,348.6941,167.6113,245.1603,0,U,40483,999,137,0,-.867E-5,0
MMS 3,2015-011C,2026-06-27T06:00:02.000160,0.28360245,.8319234,72.2634,348.7059,167.6188,245.1342,0,U,40484,999,137,0,-.866E-5,0
MMS 4,2015-011D,2026-06-27T06:00:02.000160,0.28360926,.8319103,72.2582,348.6890,167.6292,245.1234,0,U,40485,999,137,0,-.867E-5,0
ASTROSAT,2015-052A,2026-06-26T21:55:14.083680,14.82522407,.000789,5.9973,85.3306,177.8458,182.1704,0,U,40930,999,58127,.1054E-3,.1538E-4,0
DAMPE,2015-078A,2026-06-27T04:04:16.557312,15.30810812,.0013383,97.4559,183.6859,46.4127,313.8222,0,U,41173,999,58607,.56038E-4,.1594E-4,0
PISAT,2016-059B,2026-06-26T22:51:46.582272,14.68999168,.0029196,97.8180,177.9858,171.3443,188.8272,0,U,41784,999,52117,.16112E-3,.903E-5,0
HXMT (HUIYAN),2017-034A,2026-06-27T04:45:30.806208,15.18541951,.0032118,43.0134,127.2924,210.7538,149.1428,0,U,42758,999,49918,.22884E-3,.4634E-4,0
FLYING LAPTOP,2017-042G,2026-06-27T04:24:55.920384,15.01206076,.0019974,97.4727,333.3342,89.8356,270.5157,0,U,42831,999,48795,.20114E-3,.2534E-4,0
ZHANGHENG 1-01 (CSES-1),2018-015C,2026-06-27T04:55:50.087712,15.20936581,.0017412,97.6871,344.0629,229.1266,130.8461,0,U,43194,999,46616,.3749E-3,.826E-4,0
SALSAT,2020-068K,2026-06-26T22:57:28.471392,15.29932421,.0007823,97.8848,181.6168,266.2984,93.7361,0,U,46495,999,31685,.28601E-3,.8212E-4,0
IXPE,2021-121A,2026-06-27T04:00:03.000096,15.10340872,.0006852,0.2288,242.5753,230.8268,132.9888,0,U,49954,999,512,.69006E-3,.12604E-3,0
SMILE,2026-109A,2026-06-07T09:11:54.544416,7.54049028,.3310191,69.9787,209.3069,288.5544,45.7342,0,U,69123,999,248,-.36778157E-3,-.41E-6,0
